0 SL-8 R/B
1 16766U 86042J   13280.49722350  .00000125  00000-0  12512-2 0  3054
2 16766 074.0076 281.5597 0132440 051.7678 117.1477 12.23517803221169
0 SL-8 R/B
1 16766U 86042J   13282.61564716  .00000143  00000-0  14138-2 0  3067
2 16766 074.0074 278.8770 0132455 048.7403 088.0993 12.23518121221429
0 SL-8 R/B
1 16766U 86042J   13287.17569381  .00000043  00000-0  52008-3 0  3086
2 16766 074.0078 273.1018 0132575 042.2050 013.6096 12.23519181221982
0 SL-8 R/B
1 16766U 86042J   13289.48485096 -.00000015  00000-0 -23297-5 0  3094
2 16766 074.0082 270.1774 0132601 038.9023 104.6870 12.23518926222264
0 SL-8 R/B
1 16766U 86042J   13292.17667774 -.00000021  00000-0 -54842-4 0  3107
2 16766 074.0088 266.7685 0132632 035.0489 081.2989 12.23518987222594
0 SL-8 R/B
1 16766U 86042J   13294.47014837 -.00000039  00000-0 -21756-3 0  3115
2 16766 074.0089 263.8633 0132771 031.7695 103.2795 12.23518213222875
